[{"CCSDS_OMM_VERS":"3.0","COMMENT":"GENERATED VIA SPACE-TRACK.ORG API","CREATION_DATE":"2026-01-18T18:14:43","ORIGINATOR":"18 SPCS","OBJECT_NAME":"THOR ABLESTAR DEB","OBJECT_ID":"1961-015AF","CENTER_NAME":"EARTH","REF_FRAME":"TEME","TIME_SYSTEM":"UTC","MEAN_ELEMENT_THEORY":"SGP4","EPOCH":"2026-01-18T10:53:50.326080","MEAN_MOTION":"14.03177479","ECCENTRICITY":"0.00582822","INCLINATION":"66.9266","RA_OF_ASC_NODE":"34.1499","ARG_OF_PERICENTER":"42.2458","MEAN_ANOMALY":"318.3096","EPHEMERIS_TYPE":"0","CLASSIFICATION_TYPE":"U","NORAD_CAT_ID":"145","ELEMENT_SET_NO":"999","REV_AT_EPOCH":"29570","BSTAR":"0.00025140728000","MEAN_MOTION_DOT":"0.00000320","MEAN_MOTION_DDOT":"0.0000000000000","SEMIMAJOR_AXIS":"7260.950","PERIOD":"102.624","APOAPSIS":"925.133","PERIAPSIS":"840.496","OBJECT_TYPE":"DEBRIS","RCS_SIZE":"MEDIUM","COUNTRY_CODE":"US","LAUNCH_DATE":"1961-06-29","SITE":"AFETR","DECAY_DATE":null,"FILE":"4972861","GP_ID":"309361529","TLE_LINE0":"0 THOR ABLESTAR DEB","TLE_LINE1":"1 00145U 61015AF  26018.45405470  .00000320  00000-0  25141-3 0  9990","TLE_LINE2":"2 00145  66.9266  34.1499 0058282  42.2458 318.3096 14.03177479295703"},{"CCSDS_OMM_VERS":"3.0","COMMENT":"GENERATED VIA SPACE-TRACK.ORG API","CREATION_DATE":"2026-01-19T02:30:55","ORIGINATOR":"18 SPCS","OBJECT_NAME":"THOR ABLESTAR DEB","OBJECT_ID":"1961-015AH","CENTER_NAME":"EARTH","REF_FRAME":"TEME","TIME_SYSTEM":"UTC","MEAN_ELEMENT_THEORY":"SGP4","EPOCH":"2026-01-18T17:39:39.175776","MEAN_MOTION":"14.23972919","ECCENTRICITY":"0.00521045","INCLINATION":"66.6172","RA_OF_ASC_NODE":"29.1258","ARG_OF_PERICENTER":"190.5149","MEAN_ANOMALY":"169.4861","EPHEMERIS_TYPE":"0","CLASSIFICATION_TYPE":"U","NORAD_CAT_ID":"147","ELEMENT_SET_NO":"999","REV_AT_EPOCH":"31318","BSTAR":"0.00031971507000","MEAN_MOTION_DOT":"0.00000660","MEAN_MOTION_DDOT":"0.0000000000000","SEMIMAJOR_AXIS":"7190.085","PERIOD":"101.126","APOAPSIS":"849.414","PERIAPSIS":"774.486","OBJECT_TYPE":"DEBRIS","RCS_SIZE":"MEDIUM","COUNTRY_CODE":"US","LAUNCH_DATE":"1961-06-29","SITE":"AFETR","DECAY_DATE":null,"FILE":"4972920","GP_ID":"309393730","TLE_LINE0":"0 THOR ABLESTAR DEB","TLE_LINE1":"1 00147U 61015AH  26018.73587009  .00000660  00000-0  31972-3 0  9998","TLE_LINE2":"2 00147  66.6172  29.1258 0052105 190.5149 169.4861 14.23972919313189"},{"CCSDS_OMM_VERS":"3.0","COMMENT":"GENERATED VIA SPACE-TRACK.ORG API","CREATION_DATE":"2026-01-19T02:30:55","ORIGINATOR":"18 SPCS","OBJECT_NAME":"THOR ABLESTAR DEB","OBJECT_ID":"1961-015AJ","CENTER_NAME":"EARTH","REF_FRAME":"TEME","TIME_SYSTEM":"UTC","MEAN_ELEMENT_THEORY":"SGP4","EPOCH":"2026-01-18T18:36:01.740096","MEAN_MOTION":"14.10500331","ECCENTRICITY":"0.01367744","INCLINATION":"65.7718","RA_OF_ASC_NODE":"147.0725","ARG_OF_PERICENTER":"35.0609","MEAN_ANOMALY":"325.9380","EPHEMERIS_TYPE":"0","CLASSIFICATION_TYPE":"U","NORAD_CAT_ID":"148","ELEMENT_SET_NO":"999","REV_AT_EPOCH":"73790","BSTAR":"0.00032220496000","MEAN_MOTION_DOT":"0.00000538","MEAN_MOTION_DDOT":"0.0000000000000","SEMIMAJOR_AXIS":"7235.797","PERIOD":"102.091","APOAPSIS":"956.629","PERIAPSIS":"758.695","OBJECT_TYPE":"DEBRIS","RCS_SIZE":"MEDIUM","COUNTRY_CODE":"US","LAUNCH_DATE":"1961-06-29","SITE":"AFETR","DECAY_DATE":null,"FILE":"4972920","GP_ID":"309393230","TLE_LINE0":"0 THOR ABLESTAR DEB","TLE_LINE1":"1 00148U 61015AJ  26018.77502014  .00000538  00000-0  32220-3 0  9997","TLE_LINE2":"2 00148  65.7718 147.0725 0136774  35.0609 325.9380 14.10500331737900"},{"CCSDS_OMM_VERS":"3.0","COMMENT":"GENERATED VIA SPACE-TRACK.ORG API","CREATION_DATE":"2026-01-19T02:30:55","ORIGINATOR":"18 SPCS","OBJECT_NAME":"THOR ABLESTAR DEB","OBJECT_ID":"1961-015AL","CENTER_NAME":"EARTH","REF_FRAME":"TEME","TIME_SYSTEM":"UTC","MEAN_ELEMENT_THEORY":"SGP4","EPOCH":"2026-01-18T23:11:00.736800","MEAN_MOTION":"13.83732103","ECCENTRICITY":"0.00625027","INCLINATION":"66.2472","RA_OF_ASC_NODE":"271.1720","ARG_OF_PERICENTER":"336.5038","MEAN_ANOMALY":"23.3179","EPHEMERIS_TYPE":"0","CLASSIFICATION_TYPE":"U","NORAD_CAT_ID":"150","ELEMENT_SET_NO":"999","REV_AT_EPOCH":"8785","BSTAR":"0.00021906157000","MEAN_MOTION_DOT":"0.00000167","MEAN_MOTION_DDOT":"0.0000000000000","SEMIMAJOR_AXIS":"7328.816","PERIOD":"104.066","APOAPSIS":"996.488","PERIAPSIS":"904.874","OBJECT_TYPE":"DEBRIS","RCS_SIZE":"MEDIUM","COUNTRY_CODE":"US","LAUNCH_DATE":"1961-06-29","SITE":"AFETR","DECAY_DATE":null,"FILE":"4972920","GP_ID":"309393731","TLE_LINE0":"0 THOR ABLESTAR DEB","TLE_LINE1":"1 00150U 61015AL  26018.96598075  .00000167  00000-0  21906-3 0  9990","TLE_LINE2":"2 00150  66.2472 271.1720 0062503 336.5038  23.3179 13.83732103 87853"},{"CCSDS_OMM_VERS":"3.0","COMMENT":"GENERATED VIA SPACE-TRACK.ORG API","CREATION_DATE":"2026-01-19T02:30:55","ORIGINATOR":"18 SPCS","OBJECT_NAME":"THOR ABLESTAR DEB","OBJECT_ID":"1961-015AN","CENTER_NAME":"EARTH","REF_FRAME":"TEME","TIME_SYSTEM":"UTC","MEAN_ELEMENT_THEORY":"SGP4","EPOCH":"2026-01-18T23:17:41.502336","MEAN_MOTION":"14.11397215","ECCENTRICITY":"0.01567608","INCLINATION":"66.5948","RA_OF_ASC_NODE":"339.8590","ARG_OF_PERICENTER":"296.7693","MEAN_ANOMALY":"61.7429","EPHEMERIS_TYPE":"0","CLASSIFICATION_TYPE":"U","NORAD_CAT_ID":"152","ELEMENT_SET_NO":"999","REV_AT_EPOCH":"30502","BSTAR":"0.00025251189000","MEAN_MOTION_DOT":"0.00000431","MEAN_MOTION_DDOT":"0.0000000000000","SEMIMAJOR_AXIS":"7232.731","PERIOD":"102.027","APOAPSIS":"967.977","PERIAPSIS":"741.216","OBJECT_TYPE":"DEBRIS","RCS_SIZE":"MEDIUM","COUNTRY_CODE":"US","LAUNCH_DATE":"1961-06-29","SITE":"AFETR","DECAY_DATE":null,"FILE":"4972920","GP_ID":"309393231","TLE_LINE0":"0 THOR ABLESTAR DEB","TLE_LINE1":"1 00152U 61015AN  26018.97061924  .00000431  00000-0  25251-3 0  9992","TLE_LINE2":"2 00152  66.5948 339.8590 0156761 296.7693  61.7429 14.11397215305026"},{"CCSDS_OMM_VERS":"3.0","COMMENT":"GENERATED VIA SPACE-TRACK.ORG API","CREATION_DATE":"2026-01-19T02:30:55","ORIGINATOR":"18 SPCS","OBJECT_NAME":"THOR ABLESTAR DEB","OBJECT_ID":"1961-015AQ","CENTER_NAME":"EARTH","REF_FRAME":"TEME","TIME_SYSTEM":"UTC","MEAN_ELEMENT_THEORY":"SGP4","EPOCH":"2026-01-18T19:54:34.053120","MEAN_MOTION":"14.06226311","ECCENTRICITY":"0.00764120","INCLINATION":"66.6571","RA_OF_ASC_NODE":"169.5948","ARG_OF_PERICENTER":"119.5447","MEAN_ANOMALY":"241.3284","EPHEMERIS_TYPE":"0","CLASSIFICATION_TYPE":"U","NORAD_CAT_ID":"154","ELEMENT_SET_NO":"999","REV_AT_EPOCH":"29563","BSTAR":"0.00014600475000","MEAN_MOTION_DOT":"0.00000166","MEAN_MOTION_DDOT":"0.0000000000000","SEMIMAJOR_AXIS":"7250.451","PERIOD":"102.402","APOAPSIS":"927.718","PERIAPSIS":"816.914","OBJECT_TYPE":"DEBRIS","RCS_SIZE":"MEDIUM","COUNTRY_CODE":"US","LAUNCH_DATE":"1961-06-29","SITE":"AFETR","DECAY_DATE":null,"FILE":"4972920","GP_ID":"309393732","TLE_LINE0":"0 THOR ABLESTAR DEB","TLE_LINE1":"1 00154U 61015AQ  26018.82956080  .00000166  00000-0  14600-3 0  9995","TLE_LINE2":"2 00154  66.6571 169.5948 0076412 119.5447 241.3284 14.06226311295631"},{"CCSDS_OMM_VERS":"3.0","COMMENT":"GENERATED VIA SPACE-TRACK.ORG API","CREATION_DATE":"2026-01-19T02:30:55","ORIGINATOR":"18 SPCS","OBJECT_NAME":"THOR ABLESTAR DEB","OBJECT_ID":"1961-015AR","CENTER_NAME":"EARTH","REF_FRAME":"TEME","TIME_SYSTEM":"UTC","MEAN_ELEMENT_THEORY":"SGP4","EPOCH":"2026-01-18T20:45:57.477312","MEAN_MOTION":"14.51384958","ECCENTRICITY":"0.00376646","INCLINATION":"66.8783","RA_OF_ASC_NODE":"307.5649","ARG_OF_PERICENTER":"2.9967","MEAN_ANOMALY":"357.1362","EPHEMERIS_TYPE":"0","CLASSIFICATION_TYPE":"U","NORAD_CAT_ID":"155","ELEMENT_SET_NO":"999","REV_AT_EPOCH":"33943","BSTAR":"0.00081624234000","MEAN_MOTION_DOT":"0.00003199","MEAN_MOTION_DDOT":"0.0000000000000","SEMIMAJOR_AXIS":"7099.266","PERIOD":"99.216","APOAPSIS":"747.870","PERIAPSIS":"694.392","OBJECT_TYPE":"DEBRIS","RCS_SIZE":"SMALL","COUNTRY_CODE":"US","LAUNCH_DATE":"1961-06-29","SITE":"AFETR","DECAY_DATE":null,"FILE":"4972920","GP_ID":"309393232","TLE_LINE0":"0 THOR ABLESTAR DEB","TLE_LINE1":"1 00155U 61015AR  26018.86524858  .00003199  00000-0  81624-3 0  9993","TLE_LINE2":"2 00155  66.8783 307.5649 0037665   2.9967 357.1362 14.51384958339432"},{"CCSDS_OMM_VERS":"3.0","COMMENT":"GENERATED VIA SPACE-TRACK.ORG API","CREATION_DATE":"2026-01-19T02:30:55","ORIGINATOR":"18 SPCS","OBJECT_NAME":"THOR ABLESTAR DEB","OBJECT_ID":"1961-015AU","CENTER_NAME":"EARTH","REF_FRAME":"TEME","TIME_SYSTEM":"UTC","MEAN_ELEMENT_THEORY":"SGP4","EPOCH":"2026-01-18T20:57:54.690624","MEAN_MOTION":"12.66140546","ECCENTRICITY":"0.06110520","INCLINATION":"67.0734","RA_OF_ASC_NODE":"144.6642","ARG_OF_PERICENTER":"334.4282","MEAN_ANOMALY":"22.7631","EPHEMERIS_TYPE":"0","CLASSIFICATION_TYPE":"U","NORAD_CAT_ID":"158","ELEMENT_SET_NO":"999","REV_AT_EPOCH":"98644","BSTAR":"0.00084967433000","MEAN_MOTION_DOT":"0.00000280","MEAN_MOTION_DDOT":"0.0000000000000","SEMIMAJOR_AXIS":"7775.838","PERIOD":"113.731","APOAPSIS":"1872.848","PERIAPSIS":"922.559","OBJECT_TYPE":"DEBRIS","RCS_SIZE":"MEDIUM","COUNTRY_CODE":"US","LAUNCH_DATE":"1961-06-29","SITE":"AFETR","DECAY_DATE":null,"FILE":"4972920","GP_ID":"309393733","TLE_LINE0":"0 THOR ABLESTAR DEB","TLE_LINE1":"1 00158U 61015AU  26018.87354966  .00000280  00000-0  84967-3 0  9999","TLE_LINE2":"2 00158  67.0734 144.6642 0611052 334.4282  22.7631 12.66140546986448"}]